PAKSAT-1R               
1 37779U 11042A   25224.47587171  .00000155  00000+0  00000+0 0  9995
2 37779   0.0132 176.0604 0002019 296.8375  57.5143  1.00269599 51380
SES-2                   
1 37809U 11049A   25224.53794708 -.00000194  00000+0  00000+0 0  9993
2 37809   0.0107  28.3682 0002588 116.1973 283.3151  1.00270451 50869
ARABSAT-5C              
1 37810U 11049B   25224.54364536  .00000124  00000+0  00000+0 0  9990
2 37810   0.0505  16.5977 0004540 145.7206  14.6034  1.00271572 50945
EUTELSAT 7 WEST A       
1 37816U 11051A   25224.39551450 -.00000059  00000+0  00000+0 0  9993
2 37816   0.0644 344.3064 0005275 172.0364 299.8217  1.00270771 50791
QUETZSAT 1              
1 37826U 11054A   25224.52440527 -.00000240  00000+0  00000+0 0  9996
2 37826   0.0527 279.3655 0002747 232.0154 281.6219  1.00272279 46779
INTELSAT 18 (IS-18)     
1 37834U 11056A   25224.50403850  .00000054  00000+0  00000+0 0  9995
2 37834   0.0440 271.8457 0001760 238.1857 172.5932  1.00270505 50719
EUTELSAT 16A            
1 37836U 11057A   25224.54286535  .00000105  00000+0  00000+0 0  9998
2 37836   0.0647 357.2211 0005449 142.6063  32.8122  1.00271167  4233
VIASAT-1                
1 37843U 11059A   25224.51686522 -.00000022  00000+0  00000+0 0  9994
2 37843   0.0193 116.5280 0002403  30.9199 244.7142  1.00268654 44221
ASIASAT 7               
1 37933U 11069A   25224.63595257 -.00000333  00000+0  00000+0 0  9997
2 37933   0.0132 143.2807 0001480 333.7087 178.7963  1.00272141 41769
BEIDOU-2 IGSO-5         
1 37948U 11073A   25222.61901782 -.00000104  00000+0  00000+0 0  9994
2 37948  48.2438 275.3861 0110222 220.9181 142.1397  1.00275357 50029
LUCH-5A                 
1 37951U 11074B   25224.52613888 -.00000048  00000+0  00000+0 0  9995
2 37951   7.9628  78.4328 0003820  87.9998 151.2778  1.00270267 49957
NIGCOMSAT 1R            
1 38014U 11077A   25224.47673838  .00000146  00000+0  00000+0 0  9992
2 38014   0.0251 282.1691 0000235 116.9153 136.1830  1.00271043 49868
WGS F4 (USA 233)        
1 38070U 12003A   25224.34298619 -.00000214  00000+0  00000+0 0  9997
2 38070   0.0121 111.0459 0001558 103.8964 317.9917  1.00272322 41051
SES-4                   
1 38087U 12007A   25224.39256782 -.00000167  00000+0  00000+0 0  9996
2 38087   0.0239  41.5419 0002253 110.3706 288.4861  1.00270253 49129
BEIDOU-2 G5             
1 38091U 12008A   25224.60620218  .00000056  00000+0  00000+0 0  9991
2 38091   2.7990  71.1396 0005863 247.6758 279.5175  1.00276204 49278
MUOS-1                  
1 38093U 12009A   25224.51989858 -.00000126  00000+0  00000+0 0  9991
2 38093   4.8482  46.9733 0054696   4.5571 356.8606  1.00272077 49356
INTELSAT 22 (IS-22)     
1 38098U 12011A   25224.62246939 -.00000058  00000+0  00000+0 0  9991
2 38098   0.0159  82.1985 0002083  82.9889  92.3044  1.00272195  4097
APSTAR-7                
1 38107U 12013A   25224.62426622 -.00000100  00000+0  00000+0 0  9991
2 38107   0.0161 131.6401 0002373  26.5246 104.3610  1.00271587 48711
YAHSAT 1B               
1 38245U 12016A   25224.54916975  .00000128  00000+0  00000+0 0  9992
2 38245   0.0357  97.3487 0003535  53.2372  55.9453  1.00269319 42508
AEHF-2 (USA 235)        
1 38254U 12019A   25224.39360784 -.00000133  00000+0  00000+0 0  9996
2 38254   5.9316  59.6087 0002799  87.7663 298.9574  1.00272042  3899
JCSAT-13                
1 38331U 12023A   25224.64482184 -.00000355  00000+0  00000+0 0  9990
2 38331   0.0080 155.3878 0002389 348.2387 173.8418  1.00270692 48441
VINASAT-2               
1 38332U 12023B   25224.54722273 -.00000328  00000+0  00000+0 0  9996
2 38332   0.0445 290.1019 0002082 213.9735 146.0136  1.00270944 43564
NIMIQ 6                 
1 38342U 12026A   25224.48011438 -.00000172  00000+0  00000+0 0  9994
2 38342   0.0539 275.6345 0002760 231.1850 256.0879  1.00271835 47315
ZHONGXING-2A            
1 38352U 12028A   25224.61243346 -.00000292  00000+0  00000+0 0  9990
2 38352   0.6503  88.7168 0002361 108.4128  82.8748  1.00273573 48200
INTELSAT 19 (IS-19)     
1 38356U 12030A   25224.57265650 -.00000055  00000+0  00000+0 0  9991
2 38356   0.0214  84.9410 0003185  67.7907 180.6909  1.00273725 47352
ECHOSTAR 17             
1 38551U 12035A   25224.36572469 -.00000074  00000+0  00000+0 0  9990
2 38551   0.0160  94.2718 0002158  51.6064 199.7372  1.00271963 47963
METEOSAT-10 (MSG-3)     
1 38552U 12035B   25224.32556612 -.00000005  00000+0  00000+0 0  9993
2 38552   3.9347  61.9879 0000447  23.5264 352.9123  1.00267866 47763
SES-5                   
1 38652U 12036A   25224.32651946  .00000035  00000+0  00000+0 0  9993
2 38652   0.0460 301.7980 0002072 199.8423 301.9065  1.00271223 41378
INTELSAT 20 (IS-20)     
1 38740U 12043A   25224.19636464 -.00000023  00000+0  00000+0 0  9990
2 38740   0.0155 112.2036 0000192 357.6917 350.1665  1.00269762 47651
HYLAS 2                 
1 38741U 12043B   25224.52527193 -.00000256  00000+0  00000+0 0  9994
2 38741   1.6240  84.9880 0002145  95.0378 257.7310  1.00270562 47671
INTELSAT 21 (IS-21)     
1 38749U 12045A   25224.52821861 -.00000283  00000+0  00000+0 0  9993
2 38749   0.0529 272.1713 0002032 259.8305 281.3687  1.00267458 47426
ASTRA 2F                
1 38778U 12051A   25224.54529203  .00000151  00000+0  00000+0 0  9992
2 38778   0.0927 260.8658 0003143 288.9050 355.9367  1.00269829 38041
GSAT-10                 
1 38779U 12051B   25224.62517317 -.00000164  00000+0  00000+0 0  9990
2 38779   0.0550 283.9295 0007534 183.5926 161.8521  1.00271332 47001
INTELSAT 23 (IS-23)     
1 38867U 12057A   25224.45784497 -.00000283  00000+0  00000+0 0  9992
2 38867   0.0486 259.0784 0000164 267.3318 266.5594  1.00280999 46856
BEIDOU-2 G6             
1 38953U 12059A   25224.62723432 -.00000174  00000+0  00000+0 0  9990
2 38953   3.6320  76.7700 0007212 321.0479 233.3158  1.00269432 46810
LUCH-5B                 
1 38977U 12061A   25224.32227277 -.00000136  00000+0  00000+0 0  9990
2 38977   9.8096  52.8609 0005832 139.2443 228.6267  1.00270809 46518
YAMAL 300K              
1 38978U 12061B   25224.50464516  .00000072  00000+0  00000+0 0  9998
2 38978   0.0144  90.6854 0000156 142.1963  92.9429  1.00270650 46530
STAR ONE C3             
1 38991U 12062A   25224.52483860 -.00000247  00000+0  00000+0 0  9994
2 38991   0.0211  87.6964 0002093  63.9025 283.5659  1.00270625 46657
EUTELSAT 21B            
1 38992U 12062B   25224.32981281  .00000131  00000+0  00000+0 0  9994
2 38992   0.0682 357.3685 0003133 137.2487 326.7154  1.00270811 46736
ECHOSTAR 16             
1 39008U 12065A   25224.41799054 -.00000280  00000+0  00000+0 0  9997
2 39008   0.0197  93.9462 0001842  50.3822 265.7559  1.00266983 46528
ZHONGXING-12            
1 39017U 12067A   25224.60667821 -.00000206  00000+0  00000+0 0  9994
2 39017   0.0236 115.9711 0002428  29.1461 122.0794  1.00271881 46415
EUTELSAT 70B            
1 39020U 12069A   25224.62174705 -.00000042  00000+0  00000+0 0  9994
2 39020   0.0638 359.4420 0003530 143.2577 112.9241  1.00271550 46416
YAMAL 402               
1 39022U 12070A   25224.55055642  .00000087  00000+0  00000+0 0  9996
2 39022   0.4663  88.9542 0003543  53.2724  72.1070  1.00271854 46309
SKYNET 5D               
1 39034U 12075A   25224.55020976  .00000101  00000+0  00000+0 0  9993
2 39034   0.0714 355.9920 0003651 157.1493  58.9155  1.00269729 46066
MEXSAT 3                
1 39035U 12075B   25224.51695189 -.00000024  00000+0  00000+0 0  9999
2 39035   0.0101 127.8562 0001836 352.3793 272.2831  1.00272672  3954
TDRS 11                 
1 39070U 13004A   25224.50516516  .00000082  00000+0  00000+0 0  9999
2 39070   3.1005  24.7634 0003826  48.5928 255.4124  1.00277702 43591
AMAZONAS 3              
1 39078U 13006A   25224.41798991 -.00000281  00000+0  00000+0 0  9990
2 39078   0.0506 253.5998 0004310 279.1923 237.7928  1.00272038 41817
AZERSPACE 1             
1 39079U 13006B   25224.54882308  .00000134  00000+0  00000+0 0  9997
2 39079   0.0119 108.4175 0002338  74.6748  21.7172  1.00272633 45710
SBIRS GEO-2 (USA 241)   
1 39120U 13011A   25224.52977862 -.00000285  00000+0  00000+0 0  9996
2 39120   3.8239  51.6715 0001657  93.4408 317.0216  1.00271392 45446
EUTELSAT 117 WEST A     
1 39122U 13012A   25224.51651855 -.00000012  00000+0  00000+0 0  9997
2 39122   0.0109  63.0149 0002921  87.3589 239.9724  1.00271875 45372
ANIK G1                 
1 39127U 13014A   25224.51842523 -.00000073  00000+0  00000+0 0  9995
2 39127   0.0446 274.4152 0002496 265.0732 221.0541  1.00271330 45156
ZHONGXING-11            
1 39157U 13020A   25224.63362892 -.00000289  00000+0  00000+0 0  9993
2 39157   0.0229  96.2215 0001470  59.9438 131.1599  1.00268923 44801
EUTELSAT 7B             
1 39163U 13022A   25224.25555823  .00000049  00000+0  00000+0 0  9991
2 39163   0.0764 327.0763 0002208  89.6003   3.2837  1.00273825 44859
WGS F5 (USA 243)        
1 39168U 13024A   25224.45793163 -.00000283  00000+0  00000+0 0  9992
2 39168   0.0148  90.0366 0000226 200.8862 142.5787  1.00269216 44078
SES-6                   
1 39172U 13026A   25224.46027164 -.00000260  00000+0  00000+0 0  9996
2 39172   0.0602 283.2071 0002365 213.0731 310.0640  1.00272479 44620
IRNSS-1A                
1 39199U 13034A   25208.70428714  .00000059  00000+0  00000+0 0  9994
2 39199  34.9949  68.5403 0019613 179.5702   6.2794  1.00282202 44113
MUOS-2                  
1 39206U 13036A   25224.45531163  .00000066  00000+0  00000+0 0  9996
2 39206   4.3862  44.5274 0053869 176.0059  87.5214  1.00274523 44098
ALPHASAT                
1 39215U 13038A   25224.33050615  .00000136  00000+0  00000+0 0  9991
2 39215   2.9474   3.8371 0003310 168.9282 292.1249  1.00273095 40924
INSAT-3D                
1 39216U 13038B   25224.27982500 -.00000339  00000+0  00000+0 0  9998
2 39216   1.1224  86.7637 0001360  65.8650  38.5421  1.00266374 43986
